<?xml version="1.0" encoding="UTF-8"?>
<gpx version="1.1" creator="Waypic">
  <trk>
    <name>Hokianga loop</name>
    <trkseg>
      <trkpt lat="-35.3950" lon="173.5410"><ele>12</ele><time>2026-03-01T08:00:00Z</time></trkpt>
      <trkpt lat="-35.3985" lon="173.5482"><ele>28</ele><time>2026-03-01T08:08:00Z</time></trkpt>
      <trkpt lat="-35.4042" lon="173.5564"><ele>64</ele><time>2026-03-01T08:18:00Z</time></trkpt>
      <trkpt lat="-35.4110" lon="173.5621"><ele>91</ele><time>2026-03-01T08:28:00Z</time></trkpt>
      <trkpt lat="-35.4188" lon="173.5688"><ele>122</ele><time>2026-03-01T08:40:00Z</time></trkpt>
      <trkpt lat="-35.4241" lon="173.5782"><ele>108</ele><time>2026-03-01T08:50:00Z</time></trkpt>
      <trkpt lat="-35.4296" lon="173.5894"><ele>86</ele><time>2026-03-01T09:02:00Z</time></trkpt>
      <trkpt lat="-35.4330" lon="173.6012"><ele>54</ele><time>2026-03-01T09:14:00Z</time></trkpt>
      <trkpt lat="-35.4284" lon="173.6120"><ele>41</ele><time>2026-03-01T09:24:00Z</time></trkpt>
      <trkpt lat="-35.4192" lon="173.6188"><ele>33</ele><time>2026-03-01T09:34:00Z</time></trkpt>
      <trkpt lat="-35.4094" lon="173.6142"><ele>47</ele><time>2026-03-01T09:44:00Z</time></trkpt>
      <trkpt lat="-35.4018" lon="173.6026"><ele>62</ele><time>2026-03-01T09:54:00Z</time></trkpt>
      <trkpt lat="-35.3966" lon="173.5884"><ele>55</ele><time>2026-03-01T10:04:00Z</time></trkpt>
      <trkpt lat="-35.3938" lon="173.5720"><ele>36</ele><time>2026-03-01T10:14:00Z</time></trkpt>
      <trkpt lat="-35.3950" lon="173.5410"><ele>12</ele><time>2026-03-01T10:28:00Z</time></trkpt>
    </trkseg>
  </trk>
</gpx>
